ONEWEB-0588             
1 55153U 23004P   24242.32036394  .00000061  00000+0  12208-3 0  9994
2 55153  87.9090 106.2726 0002381  84.8077 275.3327 13.18684989 83126
ONEWEB-0598             
1 55154U 23004Q   24242.47394953 -.00000502  00000+0 -14513-2 0  9991
2 55154  87.8995 151.8594 0002126  94.8818 265.2552 13.11416664 79826
ONEWEB-0599             
1 55155U 23004R   24242.40484681  .00000014  00000+0  40891-5 0  9990
2 55155  87.9173 136.6704 0001763  80.5528 279.5802 13.17649582 80995
ONEWEB-0614             
1 55156U 23004S   24242.46886371 -.00000541  00000+0 -15631-2 0  9997
2 55156  87.8993 151.8653 0002178  66.3064 293.8292 13.11416924 79766
ONEWEB-0616             
1 55157U 23004T   24242.44685811  .00000031  00000+0  47758-4 0  9991
2 55157  87.9168 136.6666 0000695  81.3875 278.7335 13.17647371 81217
ONEWEB-0617             
1 55158U 23004U   24242.45699571 -.00000095  00000+0 -30449-3 0  9991
2 55158  87.8988 151.8602 0002343  73.8952 286.2434 13.11413602 79785
ONEWEB-0618             
1 55159U 23004V   24242.25362504  .00000883  00000+0  35553-3 0  9997
2 55159  86.9013  67.4005 0015084  53.3936 306.8641 14.26956920 85761
ONEWEB-0619             
1 55160U 23004W   24242.40325017  .00000274  00000+0  67202-3 0  9994
2 55160  87.9169 136.6525 0001893  56.6141 303.5171 13.17648210 81104
